IRIDIUM 126             
1 42809U 17039G   25046.93183961  .00000685  00000+0  23750-3 0  9998
2 42809  86.4008 196.8215 0002148 100.2546 259.8892 14.34219237400256
IRIDIUM 124             
1 42810U 17039H   25046.76589241  .00000789  00000+0  22850-3 0  9997
2 42810  86.4524 133.7457 0002274  89.1395 271.0067 14.43279117404950
IRIDIUM 128             
1 42811U 17039J   25046.92257785  .00000234  00000+0  76637-4 0  9999
2 42811  86.3946 228.3103 0002348  85.9259 274.2205 14.34217008400284
IRIDIUM 121             
1 42812U 17039K   25046.88109683  .00000612  00000+0  21146-3 0  9992
2 42812  86.4007 196.8664 0002046  88.8368 271.3062 14.34218176400122
IRIDIUM 133             
1 42955U 17061A   25046.88452135  .00000015  00000+0 -18172-5 0  9993
2 42955  86.3951 228.4319 0002130  91.1288 269.0152 14.34217637385079
IRIDIUM 100             
1 42956U 17061B   25046.94794782 -.00000021  00000+0 -14723-4 0  9993
2 42956  86.3951 228.3356 0002127  91.1820 268.9620 14.34217231385087
IRIDIUM 122             
1 42957U 17061C   25046.91623439  .00000189  00000+0  60452-4 0  9994
2 42957  86.3945 228.3476 0002293  96.0973 264.0484 14.34218104385086
IRIDIUM 129             
1 42958U 17061D   25046.94160388 -.00000007  00000+0 -95722-5 0  9997
2 42958  86.3951 228.3988 0001693 100.4015 259.7372 14.34217430385103
